ORBCOMM FM06            
1 25118U 97084G   23334.08833521  .00002883  00000+0  91815-3 0  9997
2 25118  45.0132 191.9793 0001477 290.0542 236.2310 14.41758362359885
ORBCOMM FM04            
1 25159U 98007C   23334.17411314  .00002584  00000+0  10038-2 0  9995
2 25159 107.9731  60.3578 0042696 156.1249 204.1881 14.31800284343382
ORBCOMM FM19            
1 25415U 98046C   23334.44788449  .00003347  00000+0  12131-2 0  9993
2 25415  44.9960 328.8455 0005030 301.7522 217.9039 14.35005102323194
ORBCOMM FM05 [-]        
1 25117U 97084F   23334.02860532  .00002623  00000+0  83884-3 0  9991
2 25117  45.0138 192.0931 0002141 274.1942  85.8664 14.41793662359873
ORBCOMM FM07 [-]        
1 25119U 97084H   23334.73278916  .00003724  00000+0  11744-2 0  9998
2 25119  45.0123 189.3635 0002687 255.4319 104.6232 14.41704498359964
ORBCOMM FM03 [-]        
1 25158U 98007B   23334.15631217  .00002560  00000+0  99770-3 0  9993
2 25158 107.9748  57.4932 0047208 157.9305 202.3879 14.31536875343240
ORBCOMM FM17 [-]        
1 25413U 98046A   23334.31256490  .00002362  00000+0  91341-3 0  9990
2 25413  44.9959  37.8670 0004028 254.3648 105.6754 14.32572722322273
ORBCOMM FM18 [-]        
1 25414U 98046B   23334.81682065  .00003864  00000+0  13884-2 0  9990
2 25414  44.9951 325.9016 0006172 313.3758  46.6575 14.35149902323258
